[{"OBJECT_NAME":"STARLINK-11542 [DTC]","OBJECT_ID":"2025-031H","EPOCH":"2026-02-05T21:17:06.165888","MEAN_MOTION":15.70948539,"ECCENTRICITY":0.0001962,"INCLINATION":42.9998,"RA_OF_ASC_NODE":192.8871,"ARG_OF_PERICENTER":297.5155,"MEAN_ANOMALY":62.5513,"EPHEMERIS_TYPE":0,"CLASSIFICATION_TYPE":"U","NORAD_CAT_ID":62988,"ELEMENT_SET_NO":999,"REV_AT_EPOCH":5771,"BSTAR":0.0019909,"MEAN_MOTION_DOT":0.00264513,"MEAN_MOTION_DDOT":0},{"OBJECT_NAME":"STARLINK-11573 [DTC]","OBJECT_ID":"2025-031J","EPOCH":"2026-02-05T18:59:52.701216","MEAN_MOTION":15.70919019,"ECCENTRICITY":0.00012044,"INCLINATION":42.999,"RA_OF_ASC_NODE":193.9078,"ARG_OF_PERICENTER":293.9936,"MEAN_ANOMALY":66.0806,"EPHEMERIS_TYPE":0,"CLASSIFICATION_TYPE":"U","NORAD_CAT_ID":62989,"ELEMENT_SET_NO":999,"REV_AT_EPOCH":5769,"BSTAR":0.0027566666,"MEAN_MOTION_DOT":0.00370748,"MEAN_MOTION_DDOT":0},{"OBJECT_NAME":"STARLINK-11572 [DTC]","OBJECT_ID":"2025-031K","EPOCH":"2026-02-05T16:51:24.043104","MEAN_MOTION":15.70831387,"ECCENTRICITY":8.57e-5,"INCLINATION":42.9992,"RA_OF_ASC_NODE":194.0861,"ARG_OF_PERICENTER":250.8554,"MEAN_ANOMALY":109.2221,"EPHEMERIS_TYPE":0,"CLASSIFICATION_TYPE":"U","NORAD_CAT_ID":62990,"ELEMENT_SET_NO":999,"REV_AT_EPOCH":5771,"BSTAR":0.0047536,"MEAN_MOTION_DOT":0.00660385,"MEAN_MOTION_DDOT":0},{"OBJECT_NAME":"STARLINK-11583 [DTC]","OBJECT_ID":"2025-031L","EPOCH":"2026-02-05T19:07:30.374976","MEAN_MOTION":15.70949752,"ECCENTRICITY":0.00027175,"INCLINATION":43.0028,"RA_OF_ASC_NODE":193.9506,"ARG_OF_PERICENTER":287.4135,"MEAN_ANOMALY":72.6436,"EPHEMERIS_TYPE":0,"CLASSIFICATION_TYPE":"U","NORAD_CAT_ID":62991,"ELEMENT_SET_NO":999,"REV_AT_EPOCH":5773,"BSTAR":0.0022187273,"MEAN_MOTION_DOT":0.00295987,"MEAN_MOTION_DDOT":0},{"OBJECT_NAME":"STARLINK-11570 [DTC]","OBJECT_ID":"2025-031M","EPOCH":"2026-02-05T19:15:08.328672","MEAN_MOTION":15.70919048,"ECCENTRICITY":0.00028061,"INCLINATION":42.9994,"RA_OF_ASC_NODE":193.9927,"ARG_OF_PERICENTER":262.1644,"MEAN_ANOMALY":97.8906,"EPHEMERIS_TYPE":0,"CLASSIFICATION_TYPE":"U","NORAD_CAT_ID":62992,"ELEMENT_SET_NO":999,"REV_AT_EPOCH":5771,"BSTAR":-0.00029184083,"MEAN_MOTION_DOT":-0.00037859,"MEAN_MOTION_DDOT":0},{"OBJECT_NAME":"STARLINK-11576 [DTC]","OBJECT_ID":"2025-031N","EPOCH":"2026-02-05T18:52:12.451872","MEAN_MOTION":15.70909852,"ECCENTRICITY":0.00030167,"INCLINATION":43.0003,"RA_OF_ASC_NODE":193.865,"ARG_OF_PERICENTER":266.1715,"MEAN_ANOMALY":93.8808,"EPHEMERIS_TYPE":0,"CLASSIFICATION_TYPE":"U","NORAD_CAT_ID":62993,"ELEMENT_SET_NO":999,"REV_AT_EPOCH":5771,"BSTAR":0.00055972667,"MEAN_MOTION_DOT":0.00072221,"MEAN_MOTION_DDOT":0},{"OBJECT_NAME":"STARLINK-32899","OBJECT_ID":"2025-031P","EPOCH":"2026-02-06T04:36:43.080192","MEAN_MOTION":15.27561334,"ECCENTRICITY":0.00014556,"INCLINATION":42.9977,"RA_OF_ASC_NODE":321.6103,"ARG_OF_PERICENTER":261.1149,"MEAN_ANOMALY":98.9538,"EPHEMERIS_TYPE":0,"CLASSIFICATION_TYPE":"U","NORAD_CAT_ID":62994,"ELEMENT_SET_NO":999,"REV_AT_EPOCH":5627,"BSTAR":-0.0010366044,"MEAN_MOTION_DOT":-0.00028661,"MEAN_MOTION_DDOT":0},{"OBJECT_NAME":"STARLINK-32819","OBJECT_ID":"2025-031Q","EPOCH":"2026-02-06T03:48:35.945568","MEAN_MOTION":15.27593204,"ECCENTRICITY":0.00017165,"INCLINATION":43.0051,"RA_OF_ASC_NODE":321.3485,"ARG_OF_PERICENTER":261.6751,"MEAN_ANOMALY":98.3906,"EPHEMERIS_TYPE":0,"CLASSIFICATION_TYPE":"U","NORAD_CAT_ID":62995,"ELEMENT_SET_NO":999,"REV_AT_EPOCH":5627,"BSTAR":0.0011513018,"MEAN_MOTION_DOT":0.00031568,"MEAN_MOTION_DDOT":0},{"OBJECT_NAME":"STARLINK-32703","OBJECT_ID":"2025-031R","EPOCH":"2026-02-06T04:29:18.814848","MEAN_MOTION":15.27580445,"ECCENTRICITY":0.00016991,"INCLINATION":43.0013,"RA_OF_ASC_NODE":321.5719,"ARG_OF_PERICENTER":282.0896,"MEAN_ANOMALY":77.9765,"EPHEMERIS_TYPE":0,"CLASSIFICATION_TYPE":"U","NORAD_CAT_ID":62996,"ELEMENT_SET_NO":999,"REV_AT_EPOCH":5627,"BSTAR":0.0014697255,"MEAN_MOTION_DOT":0.00040404,"MEAN_MOTION_DDOT":0},{"OBJECT_NAME":"STARLINK-32881","OBJECT_ID":"2025-031S","EPOCH":"2026-02-06T03:33:47.180736","MEAN_MOTION":15.27585066,"ECCENTRICITY":0.00014166,"INCLINATION":43.0019,"RA_OF_ASC_NODE":321.2645,"ARG_OF_PERICENTER":267.6655,"MEAN_ANOMALY":92.4035,"EPHEMERIS_TYPE":0,"CLASSIFICATION_TYPE":"U","NORAD_CAT_ID":62997,"ELEMENT_SET_NO":999,"REV_AT_EPOCH":5627,"BSTAR":0.0011402548,"MEAN_MOTION_DOT":0.00031253,"MEAN_MOTION_DDOT":0},{"OBJECT_NAME":"STARLINK-32898","OBJECT_ID":"2025-031T","EPOCH":"2026-02-06T04:20:02.964768","MEAN_MOTION":15.27558062,"ECCENTRICITY":0.00024539,"INCLINATION":43.0055,"RA_OF_ASC_NODE":321.5172,"ARG_OF_PERICENTER":265.4526,"MEAN_ANOMALY":94.6045,"EPHEMERIS_TYPE":0,"CLASSIFICATION_TYPE":"U","NORAD_CAT_ID":62998,"ELEMENT_SET_NO":999,"REV_AT_EPOCH":5627,"BSTAR":0.0018746591,"MEAN_MOTION_DOT":0.00051654,"MEAN_MOTION_DDOT":0},{"OBJECT_NAME":"STARLINK-32658","OBJECT_ID":"2025-031U","EPOCH":"2026-02-06T05:13:30.644256","MEAN_MOTION":15.27550055,"ECCENTRICITY":0.00021708,"INCLINATION":43.0034,"RA_OF_ASC_NODE":320.9293,"ARG_OF_PERICENTER":276.8868,"MEAN_ANOMALY":83.1737,"EPHEMERIS_TYPE":0,"CLASSIFICATION_TYPE":"U","NORAD_CAT_ID":62999,"ELEMENT_SET_NO":999,"REV_AT_EPOCH":5628,"BSTAR":0.0019093546,"MEAN_MOTION_DOT":0.00052608,"MEAN_MOTION_DDOT":0},{"OBJECT_NAME":"STARLINK-32673","OBJECT_ID":"2025-031V","EPOCH":"2026-02-06T04:05:14.345088","MEAN_MOTION":15.27635905,"ECCENTRICITY":0.000216,"INCLINATION":43.0009,"RA_OF_ASC_NODE":321.438,"ARG_OF_PERICENTER":251.4288,"MEAN_ANOMALY":108.6329,"EPHEMERIS_TYPE":0,"CLASSIFICATION_TYPE":"U","NORAD_CAT_ID":63000,"ELEMENT_SET_NO":999,"REV_AT_EPOCH":5627,"BSTAR":0.0015521409,"MEAN_MOTION_DOT":0.00042772,"MEAN_MOTION_DDOT":0},{"OBJECT_NAME":"STARLINK-32437","OBJECT_ID":"2025-031W","EPOCH":"2026-02-06T04:42:17.016192","MEAN_MOTION":15.27600656,"ECCENTRICITY":7.254e-5,"INCLINATION":43.0008,"RA_OF_ASC_NODE":321.6387,"ARG_OF_PERICENTER":305.4621,"MEAN_ANOMALY":54.6163,"EPHEMERIS_TYPE":0,"CLASSIFICATION_TYPE":"U","NORAD_CAT_ID":63001,"ELEMENT_SET_NO":999,"REV_AT_EPOCH":5627,"BSTAR":0.0010973794,"MEAN_MOTION_DOT":0.00030077,"MEAN_MOTION_DDOT":0},{"OBJECT_NAME":"STARLINK-11448 [DTC]","OBJECT_ID":"2025-032A","EPOCH":"2026-02-05T10:13:53.262624","MEAN_MOTION":15.70934215,"ECCENTRICITY":8.362e-5,"INCLINATION":42.9985,"RA_OF_ASC_NODE":29.4534,"ARG_OF_PERICENTER":270.9008,"MEAN_ANOMALY":89.1764,"EPHEMERIS_TYPE":0,"CLASSIFICATION_TYPE":"U","NORAD_CAT_ID":63005,"ELEMENT_SET_NO":999,"REV_AT_EPOCH":5715,"BSTAR":0.0019455879,"MEAN_MOTION_DOT":0.00258129,"MEAN_MOTION_DDOT":0},{"OBJECT_NAME":"STARLINK-11553 [DTC]","OBJECT_ID":"2025-032B","EPOCH":"2026-02-05T16:05:02.409792","MEAN_MOTION":15.70951068,"ECCENTRICITY":0.0002071,"INCLINATION":42.9999,"RA_OF_ASC_NODE":28.7316,"ARG_OF_PERICENTER":48.5139,"MEAN_ANOMALY":311.5906,"EPHEMERIS_TYPE":0,"CLASSIFICATION_TYPE":"U","NORAD_CAT_ID":63006,"ELEMENT_SET_NO":999,"REV_AT_EPOCH":5717,"BSTAR":0.0033897,"MEAN_MOTION_DOT":0.0046169,"MEAN_MOTION_DDOT":0},{"OBJECT_NAME":"STARLINK-11526 [DTC]","OBJECT_ID":"2025-032C","EPOCH":"2026-02-05T08:34:41.159712","MEAN_MOTION":15.70941866,"ECCENTRICITY":3.784e-5,"INCLINATION":42.9978,"RA_OF_ASC_NODE":29.7928,"ARG_OF_PERICENTER":271.1544,"MEAN_ANOMALY":88.9281,"EPHEMERIS_TYPE":0,"CLASSIFICATION_TYPE":"U","NORAD_CAT_ID":63007,"ELEMENT_SET_NO":999,"REV_AT_EPOCH":5713,"BSTAR":0.0017236261,"MEAN_MOTION_DOT":0.00227866,"MEAN_MOTION_DDOT":0},{"OBJECT_NAME":"STARLINK-11405 [DTC]","OBJECT_ID":"2025-032D","EPOCH":"2026-02-06T07:06:39.476736","MEAN_MOTION":15.7085202,"ECCENTRICITY":0.00016892,"INCLINATION":43.0003,"RA_OF_ASC_NODE":24.8185,"ARG_OF_PERICENTER":312.8766,"MEAN_ANOMALY":47.196,"EPHEMERIS_TYPE":0,"CLASSIFICATION_TYPE":"U","NORAD_CAT_ID":63008,"ELEMENT_SET_NO":999,"REV_AT_EPOCH":5712,"BSTAR":0.0025274456,"MEAN_MOTION_DOT":0.00337551,"MEAN_MOTION_DDOT":0},{"OBJECT_NAME":"STARLINK-11586 [DTC]","OBJECT_ID":"2025-032E","EPOCH":"2026-02-05T10:52:06.898368","MEAN_MOTION":15.70919213,"ECCENTRICITY":0.00014076,"INCLINATION":42.9998,"RA_OF_ASC_NODE":29.6652,"ARG_OF_PERICENTER":255.9372,"MEAN_ANOMALY":104.1339,"EPHEMERIS_TYPE":0,"CLASSIFICATION_TYPE":"U","NORAD_CAT_ID":63009,"ELEMENT_SET_NO":999,"REV_AT_EPOCH":5714,"BSTAR":0.0022467865,"MEAN_MOTION_DOT":0.00299472,"MEAN_MOTION_DDOT":0},{"OBJECT_NAME":"STARLINK-11574 [DTC]","OBJECT_ID":"2025-032F","EPOCH":"2026-02-06T06:57:41.066496","MEAN_MOTION":15.71028161,"ECCENTRICITY":0.00060737,"INCLINATION":42.9999,"RA_OF_ASC_NODE":24.7643,"ARG_OF_PERICENTER":227.9587,"MEAN_ANOMALY":132.0764,"EPHEMERIS_TYPE":0,"CLASSIFICATION_TYPE":"U","NORAD_CAT_ID":63010,"ELEMENT_SET_NO":999,"REV_AT_EPOCH":5727,"BSTAR":0.001905474,"MEAN_MOTION_DOT":0.00253823,"MEAN_MOTION_DDOT":0},{"OBJECT_NAME":"STARLINK-11580 [DTC]","OBJECT_ID":"2025-032G","EPOCH":"2026-02-06T00:13:13.399104","MEAN_MOTION":15.70905001,"ECCENTRICITY":0.00011403,"INCLINATION":42.999,"RA_OF_ASC_NODE":26.0871,"ARG_OF_PERICENTER":218.9025,"MEAN_ANOMALY":141.1761,"EPHEMERIS_TYPE":0,"CLASSIFICATION_TYPE":"U","NORAD_CAT_ID":63011,"ELEMENT_SET_NO":999,"REV_AT_EPOCH":5708,"BSTAR":0.0027454901,"MEAN_MOTION_DOT":0.00368946,"MEAN_MOTION_DDOT":0},{"OBJECT_NAME":"STARLINK-11449 [DTC]","OBJECT_ID":"2025-032H","EPOCH":"2026-02-06T06:34:45.761664","MEAN_MOTION":15.70839488,"ECCENTRICITY":0.00023366,"INCLINATION":42.9994,"RA_OF_ASC_NODE":24.6384,"ARG_OF_PERICENTER":274.8568,"MEAN_ANOMALY":85.2033,"EPHEMERIS_TYPE":0,"CLASSIFICATION_TYPE":"U","NORAD_CAT_ID":63012,"ELEMENT_SET_NO":999,"REV_AT_EPOCH":5727,"BSTAR":0.0017648579,"MEAN_MOTION_DOT":0.00232455,"MEAN_MOTION_DDOT":0},{"OBJECT_NAME":"STARLINK-11577 [DTC]","OBJECT_ID":"2025-032J","EPOCH":"2026-02-06T06:50:03.261408","MEAN_MOTION":15.70850201,"ECCENTRICITY":0.00020351,"INCLINATION":43.0006,"RA_OF_ASC_NODE":24.7239,"ARG_OF_PERICENTER":255.7684,"MEAN_ANOMALY":104.2958,"EPHEMERIS_TYPE":0,"CLASSIFICATION_TYPE":"U","NORAD_CAT_ID":63013,"ELEMENT_SET_NO":999,"REV_AT_EPOCH":5727,"BSTAR":0.0018499752,"MEAN_MOTION_DOT":0.0024414,"MEAN_MOTION_DDOT":0}]
